{
"type": "FeatureCollection",
"name": "stockholm_city",
"crs": { "type": "name", "properties": { "name": "urn:ogc:def:crs:OGC:1.3:CRS84" } },
"features": [
{ "type": "Feature", "properties": { "lan_code": "01", "kom_namn": "Stockholm", "id": "0180", "geo_point_2d": [ 59.322028706099999, 17.996890371500001 ] }, "geometry": { "type": "MultiPolygon", "coordinates": [ [ [ [ 17.972672385088892, 59.400447914886968 ], [ 17.922234430149121, 59.421674832620091 ], [ 17.891183806339921, 59.425415854653643 ], [ 17.898899040561982, 59.415719569710802 ], [ 17.877488577152572, 59.398509300214442 ], [ 17.839740262917772, 59.38128302130599 ], [ 17.817151959009681, 59.399174277110149 ], [ 17.798687097676879, 59.390506942025674 ], [ 17.760690600957179, 59.391767186246334 ], [ 17.788041424767428, 59.370854693101222 ], [ 17.816208215809294, 59.358176732376016 ], [ 17.941254000437301, 59.31762940020019 ], [ 17.863491277882559, 59.274543256645458 ], [ 17.905554896880176, 59.268406921859025 ], [ 17.915281632920976, 59.278960033977633 ], [ 17.946648018374834, 59.286704384578023 ], [ 17.980319113558817, 59.262569459232374 ], [ 18.109279953988704, 59.227045532260327 ], [ 18.13367318516363, 59.242401217654077 ], [ 18.177187170681023, 59.232426511771557 ], [ 18.200077544069796, 59.247472665443127 ], [ 18.123304824252433, 59.288367839420559 ], [ 18.128432329522234, 59.301226966366542 ], [ 18.109327677909317, 59.317679752886505 ], [ 18.163934261959835, 59.325327518330816 ], [ 18.160556360593752, 59.334596520752932 ], [ 18.126171108162843, 59.34765754709489 ], [ 18.095565096205629, 59.369690569575603 ], [ 18.05874142625305, 59.375496664273662 ], [ 18.048905468617154, 59.357392295897704 ], [ 18.024772098479531, 59.339364669891758 ], [ 17.981441686543945, 59.345029859318011 ], [ 17.96579541118469, 59.355202245736862 ], [ 17.929250174777398, 59.378214092210087 ], [ 17.953736303642224, 59.397520720325147 ], [ 17.972672385088892, 59.400447914886968 ] ] ] ] } }
]
}
