{
  "type": "FeatureCollection",
  "name": "stockholm_demo_zones",
  "features": [
    {
      "type": "Feature",
      "properties": {
        "zone_name": "Central Stockholm",
        "mean_lst_c": 32.4,
        "ndvi": 0.38,
        "impervious_level": "High",
        "heat_exposure_class": "Very high",
        "planning_relevance": "Priority area for cooling intervention",
        "context_class": "Dense urban fabric"
      },
      "geometry": {
        "type": "Polygon",
        "coordinates": [
          [
            [18.035, 59.324],
            [18.079, 59.321],
            [18.092, 59.339],
            [18.052, 59.347],
            [18.035, 59.324]
          ]
        ]
      }
    },
    {
      "type": "Feature",
      "properties": {
        "zone_name": "Sodermalm Ridge",
        "mean_lst_c": 31.6,
        "ndvi": 0.33,
        "impervious_level": "High",
        "heat_exposure_class": "High",
        "planning_relevance": "Targeted greening and shaded mobility corridors",
        "context_class": "Dense urban fabric"
      },
      "geometry": {
        "type": "Polygon",
        "coordinates": [
          [
            [18.015, 59.302],
            [18.078, 59.296],
            [18.106, 59.314],
            [18.051, 59.324],
            [18.015, 59.302]
          ]
        ]
      }
    },
    {
      "type": "Feature",
      "properties": {
        "zone_name": "Kungsholmen Waterfront",
        "mean_lst_c": 29.8,
        "ndvi": 0.42,
        "impervious_level": "Moderate",
        "heat_exposure_class": "High",
        "planning_relevance": "Maintain waterfront cooling and improve public-realm shade",
        "context_class": "Water influence"
      },
      "geometry": {
        "type": "Polygon",
        "coordinates": [
          [
            [17.985, 59.321],
            [18.036, 59.317],
            [18.044, 59.344],
            [17.997, 59.353],
            [17.985, 59.321]
          ]
        ]
      }
    },
    {
      "type": "Feature",
      "properties": {
        "zone_name": "Djurgarden Green Corridor",
        "mean_lst_c": 26.9,
        "ndvi": 0.62,
        "impervious_level": "Low",
        "heat_exposure_class": "Moderate",
        "planning_relevance": "Protect existing cooling assets and ecological connectivity",
        "context_class": "Green corridor"
      },
      "geometry": {
        "type": "Polygon",
        "coordinates": [
          [
            [18.095, 59.315],
            [18.171, 59.314],
            [18.183, 59.339],
            [18.112, 59.349],
            [18.095, 59.315]
          ]
        ]
      }
    },
    {
      "type": "Feature",
      "properties": {
        "zone_name": "Hammarby Urban Edge",
        "mean_lst_c": 30.7,
        "ndvi": 0.29,
        "impervious_level": "Very high",
        "heat_exposure_class": "Very high",
        "planning_relevance": "Priority area for surface cooling, trees, and reflective materials",
        "context_class": "Water influence"
      },
      "geometry": {
        "type": "Polygon",
        "coordinates": [
          [
            [18.07, 59.285],
            [18.139, 59.283],
            [18.151, 59.306],
            [18.093, 59.314],
            [18.07, 59.285]
          ]
        ]
      }
    },
    {
      "type": "Feature",
      "properties": {
        "zone_name": "North Stockholm Park Belt",
        "mean_lst_c": 27.8,
        "ndvi": 0.55,
        "impervious_level": "Moderate",
        "heat_exposure_class": "Moderate",
        "planning_relevance": "Use green-space network as cooling refuge and adaptation anchor",
        "context_class": "Green corridor"
      },
      "geometry": {
        "type": "Polygon",
        "coordinates": [
          [
            [18.0, 59.352],
            [18.075, 59.348],
            [18.1, 59.379],
            [18.018, 59.387],
            [18.0, 59.352]
          ]
        ]
      }
    }
  ]
}
